GSAT0101 (PRN E11)      
1 37846U 11060A   23244.95040014 -.00000098  00000+0  00000+0 0  9990
2 37846  57.1095   9.3639 0001797  75.8015 284.2161  1.70475793 73745
GSAT0102 (PRN E12)      
1 37847U 11060B   23246.05460233 -.00000101  00000+0  00000+0 0  9998
2 37847  57.1103   9.3339 0001202 349.8728  14.0942  1.70475212 73774
GSAT0103 (PRN E19)      
1 38857U 12055A   23244.98961061  .00000002  00000+0  00000+0 0  9999
2 38857  55.2810 129.5576 0002580 264.4207  95.6377  1.70473559 67639
GSAT0104 (PRN E20)      
1 38858U 12055B   23245.54564376 -.00000001  00000+0  00000+0 0  9991
2 38858  55.2815 129.5439 0000301 226.5473 133.5376  1.70473880 67645
GSAT0201 (PRN E18)      
1 40128U 14050A   23246.26498823 -.00000089  00000+0  00000+0 0  9990
2 40128  49.9360 314.6103 1608951 140.3375 232.6257  1.85519089 59433
GSAT0202 (PRN E14)      
1 40129U 14050B   23245.98538493 -.00000086  00000+0  00000+0 0  9994
2 40129  49.9555 313.6929 1606867 141.1369 231.6055  1.85519800 61597
GSAT0203 (PRN E26)      
1 40544U 15017A   23246.48962474 -.00000102  00000+0  00000+0 0  9994
2 40544  56.9050   9.2953 0003051 224.7967 135.1791  1.70476109 51859
GSAT0204 (PRN E22)      
1 40545U 15017B   23244.98349117 -.00000099  00000+0  00000+0 0  9996
2 40545  56.9109   9.3505 0003392 206.4588 153.5219  1.70475605 14873
GSAT0205 (PRN E24)      
1 40889U 15045A   23244.16484061  .00000034  00000+0  00000+0 0  9994
2 40889  55.3655 249.7837 0003380 357.9516   2.0575  1.70473351 49621
GSAT0206 (PRN E30)      
1 40890U 15045B   23246.14527321  .00000031  00000+0  00000+0 0  9990
2 40890  55.3635 249.7244 0002349 323.3367  36.6486  1.70473335 49680
GSAT0209 (PRN E09)      
1 41174U 15079A   23246.31703942 -.00000006  00000+0  00000+0 0  9990
2 41174  55.2992 129.2279 0003119 330.0482  30.0201  1.70473910 47422
GSAT0208 (PRN E08)      
1 41175U 15079B   23245.95007639 -.00000004  00000+0  00000+0 0  9998
2 41175  55.2972 129.2362 0002528 337.8633  22.2129  1.70473875 47837
GSAT0211 (PRN E02)      
1 41549U 16030A   23246.07095040  .00000031  00000+0  00000+0 0  9997
2 41549  55.5110 249.7065 0003935 307.5186  52.4472  1.70473469 45313
GSAT0210 (PRN E01)      
1 41550U 16030B   23246.36248060  .00000032  00000+0  00000+0 0  9994
2 41550  55.5100 249.6998 0004218 274.5863  85.3666  1.70473546 45314
GSAT0207 (PRN E07)      
1 41859U 16069A   23243.67796581  .00000004  00000+0  00000+0 0  9994
2 41859  54.9607 129.3735 0003146 308.0773  51.9800  1.70473748 42002
GSAT0212 (PRN E03)      
1 41860U 16069B   23245.87896838 -.00000004  00000+0  00000+0 0  9997
2 41860  54.9591 129.3091 0002345 355.9488   4.1362  1.70474026 42299
GSAT0213 (PRN E04)      
1 41861U 16069C   23244.48525747  .00000003  00000+0  00000+0 0  9990
2 41861  54.9610 129.3539 0002980 279.5929  80.4610  1.70472709 42137
GSAT0214 (PRN E05)      
1 41862U 16069D   23245.21908982  .00000000  00000+0  00000+0 0  9996
2 41862  54.9599 129.3273 0001898 287.4350  72.6321  1.70472544 42276
GSAT0215 (PRN E21)      
1 43055U 17079A   23246.29433359  .00000032  00000+0  00000+0 0  9999
2 43055  55.4873 249.5265 0003743 268.5297  91.4283  1.70474094 35630
GSAT0216 (PRN E25)      
1 43056U 17079B   23245.41308907  .00000031  00000+0  00000+0 0  9992
2 43056  55.4878 249.5507 0005317 274.7371  85.2053  1.70474223 35636
GSAT0217 (PRN E27)      
1 43057U 17079C   23243.28713315  .00000040  00000+0  00000+0 0  9999
2 43057  55.4874 249.6083 0004633 284.3532  75.6126  1.70474204 35586
GSAT0218 (PRN E31)      
1 43058U 17079D   23246.44007672  .00000032  00000+0  00000+0 0  9994
2 43058  55.4857 249.5189 0005766 271.5684  88.3662  1.70474175 35660
GSAT0221 (PRN E15)      
1 43564U 18060A   23244.58006907 -.00000097  00000+0  00000+0 0  9992
2 43564  57.2853   9.2746 0002610 252.3714 107.5973  1.70475928 31789
GSAT0222 (PRN E33)      
1 43565U 18060B   23245.38473711 -.00000099  00000+0  00000+0 0  9995
2 43565  57.2889   9.2541 0003294 209.0198 150.9603  1.70475728 31843
GSAT0219 (PRN E36)      
1 43566U 18060C   23243.84731546 -.00000095  00000+0  00000+0 0  9994
2 43566  57.2878   9.2976 0001644 255.4580 104.5202  1.70475930 31790
GSAT0220 (PRN E13)      
1 43567U 18060D   23246.41407793 -.00000102  00000+0  00000+0 0  9994
2 43567  57.2880   9.2281 0002266 248.6184 111.3576  1.70475674 31827
GSAT0223 (PRN E34)      
1 49809U 21116A   23246.27216553 -.00000102  00000+0  00000+0 0  9991
2 49809  57.2793   9.1278 0003324 176.1719 186.9873  1.70475857 10834
GSAT0224 (PRN E10)      
1 49810U 21116B   23245.49771503 -.00000100  00000+0  00000+0 0  9995
2 49810  57.2788   9.1469 0002770 165.0778 195.2664  1.70475813 10831
